ONEWEB-0645             
1 55809U 23029P   25147.18207073 -.00000087  00000+0 -25058-3 0  9999
2 55809  87.9241  21.7285 0001469  85.0946 275.0355 13.19727069108682
ONEWEB-0646             
1 55810U 23029Q   25145.69575757  .00000047  00000+0  84620-4 0  9997
2 55810  87.9242  22.0174 0001831  90.6668 269.4674 13.19724009107784
ONEWEB-0648             
1 55811U 23029R   25147.34745683  .00000034  00000+0  56908-4 0  9993
2 55811  87.9051   6.4698 0001258 117.0226 243.1032 13.14503057109419
ONEWEB-0649             
1 55812U 23029S   25147.93315132 -.00000062  00000+0 -18717-3 0  9999
2 55812  87.9238  21.5627 0001480  96.6242 263.5059 13.19724728108806
ONEWEB-0650             
1 55813U 23029T   25147.92841198  .00000059  00000+0  11534-3 0  9999
2 55813  87.9241  21.5726 0001766  88.9219 271.2116 13.19725293108770
ONEWEB-0652             
1 55814U 23029U   25147.86123610 -.00000396  00000+0 -11016-2 0  9995
2 55814  87.9050   6.3779 0001883  80.8044 279.3299 13.14502109109434
ONEWEB-0653             
1 55815U 23029V   25147.84539208  .00000041  00000+0  76025-4 0  9996
2 55815  87.9055   6.3698 0001686  77.0119 283.1199 13.14503873109466
ONEWEB-0654             
1 55816U 23029W   25147.84063445  .00000155  00000+0  38459-3 0  9996
2 55816  87.9052   6.3716 0001949  72.7317 287.4026 13.14503695109489
